satname,norad_id,inclination_deg,eccentricity,mean_motion_rev_per_day,perigee_km,apogee_km,l1,l2
STARLINK-1452,45669,53.0336,0.0004386,15.38551263,447.3975695725894,453.38755570493686,1 45669U 20035N   26031.91670139  .00157258  00000+0  39971-2 0  9996,2 45669  53.0336 196.1227 0004386 230.2303  58.1269 15.38551263  5920
STARLINK-1453,45670,53.0498,0.0004974,15.44582339,429.2178995051172,435.9932262066459,1 45670U 20035P   26031.91670139  .00157168  00000+0  32686-2 0  9994,2 45670  53.0498 189.4189 0004974 211.1907 127.8200 15.44582339  5939
STARLINK-1454,45671,53.0539,5.4e-05,15.4316445,436.40881255417753,437.1448232465109,1 45671U 20035Q   26031.91670139  .00125993  00000+0  27626-2 0  9994,2 45671  53.0539 228.5715 0000540 121.7896 150.8271 15.43164450  5836
STARLINK-1456,45673,53.0515,0.0005417,15.42061104,436.3337485186221,443.720547556607,1 45673U 20035S   26031.91670139  .00143305  00000+0  32508-2 0  9998,2 45673  53.0515 221.8852 0005417 157.5165 215.0645 15.42061104  5676
STARLINK-1457,45674,53.0491,0.0002212,15.66915176,366.24416495374953,369.2285393247357,1 45674U 20035T   26031.83335647  .00210372  00000+0  19028-2 0  9993,2 45674  53.0491 205.5576 0002212 292.7219 121.3527 15.66915176  5967
STARLINK-1458,45675,53.0531,0.000101,15.37467956,452.9097895690811,454.289800401667,1 45675U 20035U   26031.83335647  .00075488  00000+0  20148-2 0  9996,2 45675  53.0531 229.8099 0001010 122.9149 274.1717 15.37467956  5765
STARLINK-1460,45676,53.0551,0.0001287,15.06391817,546.3453421810591,548.1279333554212,1 45676U 20035V   26031.81239108  .00001170  00000+0  97466-4 0  9996,2 45676  53.0551 232.1669 0001287  95.3668 264.7468 15.06391817313132
STARLINK-1392,45677,53.0534,0.0001302,15.06411503,546.2746273322864,548.0779789164199,1 45677U 20035W   26031.82344272  .00003508  00000+0  25423-3 0  9997,2 45677  53.0534 232.1170 0001302  92.5134 267.6005 15.06411503313174
STARLINK-1394,45679,53.0524,0.0006152,15.41783219,436.65133774984497,445.04141489607264,1 45679U 20035Y   26031.75458097  .00016168  00000+0  38481-3 0  9996,2 45679  53.0524 212.5788 0006152 157.9133 202.2138 15.41783219313442
STARLINK-1402,45685,53.0501,0.0008021,15.38861282,443.9989868624534,454.95184269824404,1 45685U 20035AE  26031.83335647  .00128151  00000+0  32367-2 0  9999,2 45685  53.0501 198.1219 0008021 146.4984 178.3859 15.38861282  5800
STARLINK-1404,45686,53.1561,0.0001556,15.29340255,476.7165343329152,478.8500967351092,1 45686U 20035AF  26031.83335647  .00016326  00000+0  57714-3 0  9994,2 45686  53.1561 220.8255 0001556  81.6278 177.0171 15.29340255  5718
STARLINK-1413,45689,53.1562,0.0001242,15.29346869,476.9120460387967,478.6150517351398,1 45689U 20035AJ  26031.83335647  .00025848  00000+0  90522-3 0  9990,2 45689  53.1562 220.7581 0001242  81.8828 112.5677 15.29346869  5822
STARLINK-1417,45693,53.05,0.0007506,15.10230223,530.307919594462,540.6866673958575,1 45693U 20035AN  26031.83173685  .00017517  00000+0  10738-2 0  9991,2 45693  53.0500 221.0716 0007506 129.1181 231.0478 15.10230223313328
STARLINK-1420,45695,53.0544,4.65e-05,15.46517094,426.60760080434284,427.2404714807035,1 45695U 20035AQ  26031.83335647  .00197107  00000+0  38159-2 0  9992,2 45695  53.0544 199.0571 0000465  34.0124 274.1637 15.46517094  5628
STARLINK-1422,45696,53.144,0.0002151,15.27339268,482.29403272621676,485.24602513006084,1 45696U 20035AR  26031.83335647  .00089343  00000+0  32663-2 0  9999,2 45696  53.1440 220.7023 0002151  93.4408  92.9890 15.27339268  5820
STARLINK-1351,45697,53.0547,0.0001032,15.42989339,436.58906379058226,437.99576842206625,1 45697U 20035AS  26031.83335647  .00110816  00000+0  24501-2 0  9992,2 45697  53.0547 198.1780 0001032  87.8694  35.2558 15.42989339  5836
STARLINK-1398,45699,53.043,0.000381,15.76078516,339.0036830741792,344.1240951516829,1 45699U 20035AU  26031.83335647  .00171837  00000+0  10624-2 0  9995,2 45699  53.0430 125.4546 0003810 306.8446 186.6240 15.76078516  5839
STARLINK-1400,45700,53.0538,7.41e-05,15.43597885,434.9961371903664,436.00591834608167,1 45700U 20035AV  26031.83335647  .00148368  00000+0  31951-2 0  9997,2 45700  53.0538 199.0264 0000741  22.0255 158.7332 15.43597885  5820
STARLINK-1403,45701,53.0568,0.0001327,15.06391837,546.3175793969685,548.1555735441643,1 45701U 20035AW  26031.85200598 -.00000917  00000+0 -42706-4 0  9997,2 45701  53.0568 201.9892 0001327  84.8122 275.3018 15.06391837313595
STARLINK-1407,45703,53.0363,0.001043,15.53635096,399.0471579296427,413.1991245843046,1 45703U 20035AY  26031.83335647  .00063125  00000+0  96969-3 0  9998,2 45703  53.0363 134.3975 0010430 334.0295 343.1645 15.53635096  5797
STARLINK-1411,45706,53.046,0.0002034,15.55466089,399.41926909745416,402.17693989796317,1 45706U 20035BB  26031.75708704  .00064412  00000+0  92708-3 0  9997,2 45706  53.0460 160.9604 0002034 338.7141  21.3784 15.55466089314163
STARLINK-1423,45710,53.0534,0.0001134,15.45410605,429.3997955284203,430.94391997735966,1 45710U 20035BF  26031.83335647  .00120151  00000+0  24437-2 0  9999,2 45710  53.0534 198.6245 0001134  82.2058   5.8996 15.45410605  5674
STARLINK-1433,45711,53.0532,9.24e-05,15.47364668,423.81025509777464,425.06737110803624,1 45711U 20035BG  26031.83335647  .00144148  00000+0  27311-2 0  9996,2 45711  53.0532 198.2156 0000924  22.1538  13.8014 15.47364668  5727
STARLINK-1434,45712,53.0507,0.0001866,15.22591781,496.7432897218405,499.30947389593075,1 45712U 20035BH  26031.66577135  .00052139  00000+0  22139-2 0  9999,2 45712  53.0507 191.0147 0001866 103.4424 256.6780 15.22591781313746
STARLINK-1465,45731,53.055,0.0001727,15.41151899,441.53051557254093,443.8864355998094,1 45731U 20038B   26031.83335647  .01707365  00000+0  36723-1 0  9994,2 45731  53.0550  39.1685 0001727 114.0967 336.0399 15.41151899  5773
STARLINK-1471,45735,53.0504,0.000321,15.45672977,427.21616009855825,431.58659973846625,1 45735U 20038F   26031.19096382  .00024575  00000+0  50843-3 0  9992,2 45735  53.0504 321.3300 0003210 104.4886 255.6477 15.45672977311725
STARLINK-1474,45738,53.0239,0.0005146,15.95425969,283.6977860699535,290.557676531409,1 45738U 20038J   26031.83335647  .00266910  39097-4  66218-3 0  9993,2 45738  53.0239 252.0937 0005146 202.2525 292.5649 15.95425969  6056
STARLINK-1480,45741,53.054,0.0008834,15.418602,434.59571582797435,446.64309464474536,1 45741U 20038M   26031.83335647  .00138649  00000+0  31661-2 0  9994,2 45741  53.0540  32.8299 0008834  46.9167 141.7732 15.41860200  5916
STARLINK-1500,45744,53.0385,0.0004202,15.32643261,465.05290827206136,470.8063426641047,1 45744U 20038Q   26031.33809303  .00024956  00000+0  78954-3 0  9999,2 45744  53.0385   7.6693 0004202 102.7892 257.3578 15.32643261311081
STARLINK-1504,45746,53.0255,0.0004545,15.50565031,411.9877403341752,418.1627702742471,1 45746U 20038S   26031.07538468  .00030736  00000+0  53418-3 0  9994,2 45746  53.0255 323.2860 0004545  88.7187 271.4342 15.50565031311671
STARLINK-1506,45747,53.0754,0.000473,15.25074038,487.31422572543306,493.8120160397866,1 45747U 20038T   26031.31859475  .00021567  00000+0  86195-3 0  9996,2 45747  53.0754  15.0719 0004730 110.3277 249.8228 15.25074038310982
STARLINK-1464,45751,53.0545,0.0001943,15.39023879,447.6680057388321,450.3210290464913,1 45751U 20038X   26031.83335647  .00136328  00000+0  34235-2 0  9997,2 45751  53.0545  19.3210 0001943  85.8005  13.2961 15.39023879  5829
STARLINK-1477,45754,53.0527,4.15e-05,15.11998964,529.8178227259004,530.3912067716255,1 45754U 20038AA  26031.25009218  .00031863  00000+0  18436-2 0  9991,2 45754  53.0527  22.8280 0000415 311.9756  48.1200 15.11998964310869
STARLINK-1478,45755,53.0545,0.0004857,15.47283037,421.37394227953064,427.9821968381011,1 45755U 20038AB  26031.83335647  .00168573  00000+0  31906-2 0  9990,2 45755  53.0545  15.0890 0004857  80.8845 197.2564 15.47283037  5852
STARLINK-1484,45756,53.005,0.0003582,15.82632794,320.5981730740923,325.3988665604893,1 45756U 20038AC  26031.83335647  .00152548  00000+0  70273-3 0  9997,2 45756  53.0050 244.7225 0003582 178.0391 176.1315 15.82632794  6035
STARLINK-1493,45759,53.0669,0.0001516,15.37043283,453.82222517265654,455.89398928916853,1 45759U 20038AF  26031.83335647  .00376050  00000+0  97362-2 0  9993,2 45759  53.0669  19.9804 0001516  83.5593 279.3823 15.37043283  5777
STARLINK-1494,45760,53.0516,0.0002065,15.67058616,365.93175438006165,368.7176300589481,1 45760U 20038AG  26031.83443987  .00068062  00000+0  62627-3 0  9990,2 45760  53.0516 333.8895 0002065 124.1997 235.9214 15.67058616311601
STARLINK-1502,45764,53.0532,0.0001765,15.2820139,479.9783902934814,482.3997323931362,1 45764U 20038AL  26031.83335647  .01018124  00000+0  33585-1 0  9991,2 45764  53.0532  20.6641 0001765 105.3273  89.6613 15.28201390  5824
STARLINK-1470,45772,53.0494,0.000153,15.24921121,489.97132105792025,492.07328380446415,1 45772U 20038AU  26031.87308566  .00047762  00000+0  18949-2 0  9991,2 45772  53.0494 344.7468 0001530 101.4846 258.6323 15.24921121311452
STARLINK-1482,45773,53.103,9.53e-05,15.1753519,512.6359038162309,513.9494103088664,1 45773U 20038AV  26031.83335647  .00832465  00000+0  38192-1 0  9991,2 45773  53.1030   1.7946 0000953  93.0200  78.4495 15.17535190  5771
STARLINK-1496,45780,53.0555,0.0008105,15.41657329,435.6905047059736,446.74467849896246,1 45780U 20038BC  26031.83335647  .00176977  00000+0  40468-2 0  9998,2 45780  53.0555 353.2929 0008105  77.5538 296.5490 15.41657329  5756
STARLINK-1497,45781,53.0242,0.0005829,16.00739494,268.49310804825564,276.24626874558817,1 45781U 20038BD  26031.84141402  .00542962  14172-3  99497-3 0  9991,2 45781  53.0242 264.1773 0005829 177.9908 182.1146 16.00739494312572
STARLINK-1513,45786,53.0952,0.0002326,15.15914624,516.599147291613,519.8073247694138,1 45786U 20038BJ  26031.83335647  .01474673  00000+0  69428-1 0  9995,2 45786  53.0952   1.8980 0002326  83.5313  51.3363 15.15914624  5822
